STARLINK-2621_new
1 18370C 21038T   21326.16614622  .00007497  00000-0  50220-3 0  3261
2 18370  53.0530 192.9870 0001966  72.7015 148.5907 15.06396851    19
STARLINK-2621_old
1 28370C 21038T   21325.14085173  .00009125  00000-0  61143-3 0  3256
2 28370  53.0531 197.5897 0001954  70.8194 347.1968 15.06386605    14
